OBJECT_NAME,OBJECT_ID,EPOCH,MEAN_MOTION,ECCENTRICITY,INCLINATION,RA_OF_ASC_NODE,ARG_OF_PERICENTER,MEAN_ANOMALY,EPHEMERIS_TYPE,CLASSIFICATION_TYPE,NORAD_CAT_ID,ELEMENT_SET_NO,REV_AT_EPOCH,BSTAR,MEAN_MOTION_DOT,MEAN_MOTION_DDOT
ONEWEB-0198,2021-031G,2026-07-20T22:43:30.705024,13.14503192,.00025147,87.8952,282.9823,96.9182,263.2234,0,U,48216,999,25292,-.55660359E-3,-.194E-5,0
ONEWEB-0189,2021-031H,2026-07-20T17:32:45.409632,13.14503187,.0002362,87.8966,283.0155,98.1238,262.0160,0,U,48217,999,25263,-.31963733E-3,-.106E-5,0
ONEWEB-0196,2021-031J,2026-07-20T22:29:36.821472,13.14502722,.00021826,87.8965,282.9829,96.8832,263.2546,0,U,48218,999,25266,-.56235404E-3,-.196E-5,0
ONEWEB-0183,2021-031K,2026-07-20T18:13:51.605184,13.14502149,.00018874,87.8962,283.0157,93.7502,266.3844,0,U,48219,999,25273,.48442244E-3,.192E-5,0
ONEWEB-0185,2021-031L,2026-07-20T22:30:43.731360,13.14501212,.00020859,87.8968,282.9759,86.8284,273.3084,0,U,48220,999,25268,-.5053543E-3,-.175E-5,0
ONEWEB-0187,2021-031M,2026-07-20T18:22:47.066592,13.14502801,.00021513,87.8964,283.0237,95.0984,265.0391,0,U,48221,999,25267,.23651012E-3,.1E-5,0
ONEWEB-0192,2021-031N,2026-07-20T17:39:36.103392,13.14503579,.00021357,87.8958,283.0198,100.1402,259.9969,0,U,48222,999,25258,-.15032408E-4,.7E-7,0
ONEWEB-0219,2021-031P,2026-07-20T22:38:43.346400,13.14501901,.00021849,87.8971,282.9723,92.4847,267.6533,0,U,48223,999,25281,-.12208879E-2,-.44E-5,0
ONEWEB-0202,2021-031Q,2026-07-20T18:32:08.041056,13.14502556,.00026995,87.8966,283.0182,103.2480,256.8951,0,U,48224,999,25277,-.26025488E-4,.3E-7,0
ONEWEB-0204,2021-031R,2026-07-20T17:31:35.976000,13.14503559,.00016961,87.8964,283.0209,90.6319,269.5005,0,U,48225,999,25266,-.28296198E-3,-.92E-6,0
ONEWEB-0205,2021-031S,2026-07-20T22:25:02.406432,13.14502810,.00022558,87.8973,282.9760,93.4584,266.6804,0,U,48226,999,25270,-.26987168E-3,-.87E-6,0
ONEWEB-0206,2021-031T,2026-07-20T18:07:00.352416,13.14501887,.00019161,87.8968,283.0114,103.0383,257.0960,0,U,48227,999,25263,.46975506E-3,.187E-5,0
ONEWEB-0182,2021-031U,2026-07-20T18:00:07.883136,13.14503784,.00018518,87.8963,283.0188,95.0194,265.1147,0,U,48228,999,25284,.37752345E-3,.153E-5,0
ONEWEB-0186,2021-031V,2026-07-20T18:16:08.102496,13.14503065,.00020757,87.8974,283.0105,96.3944,263.7422,0,U,48229,999,25279,.53577954E-3,.211E-5,0
ONEWEB-0181,2021-031W,2026-07-20T17:44:09.221568,13.14502025,.00022141,87.8951,283.0387,96.4076,263.7306,0,U,48230,999,25264,.12578976E-3,.59E-6,0
ONEWEB-0188,2021-031X,2026-07-20T18:38:58.128288,13.14502410,.00020576,87.8955,283.0302,97.5951,262.5413,0,U,48231,999,25255,-.86431721E-4,-.19E-6,0
ONEWEB-0220,2021-031Y,2026-07-20T17:46:30.064800,13.14501023,.00021063,87.8968,283.0158,92.3659,267.7712,0,U,48232,999,25281,.19860631E-2,.749E-5,0
ONEWEB-0165,2021-031Z,2026-07-20T18:27:33.158592,13.14503472,.00024331,87.8966,283.0205,98.6336,261.5069,0,U,48233,999,25277,.2116681E-5,.14E-6,0
ONEWEB-0199,2021-031AA,2026-07-20T18:04:43.684896,13.14502371,.00018653,87.8970,283.0114,101.9283,258.2056,0,U,48234,999,25267,.52349783E-3,.207E-5,0
ONEWEB-0203,2021-031AB,2026-07-20T17:51:01.534464,13.14501863,.00021115,87.8967,283.0162,103.8959,256.2406,0,U,48235,999,25268,.37369795E-3,.151E-5,0
ONEWEB-0197,2021-031AC,2026-07-20T19:03:52.960608,13.14502622,.00019201,87.8960,282.9891,91.9769,268.1581,0,U,48236,999,25260,-.57145864E-3,-.199E-5,0
ONEWEB-0194,2021-031AD,2026-07-20T18:34:23.237184,13.14503718,.00019602,87.8965,283.0170,105.4933,254.6414,0,U,48237,999,25277,.28888728E-4,.24E-6,0
ONEWEB-0193,2021-031AE,2026-07-20T17:07:37.996608,13.14502549,.00019032,87.8964,283.0193,111.0931,249.0403,0,U,48238,999,25271,-.74388513E-3,-.263E-5,0
ONEWEB-0191,2021-031AF,2026-07-20T17:23:34.732320,13.14503525,.00019062,87.8970,283.0181,95.3398,264.7949,0,U,48239,999,25257,-.15958677E-2,-.579E-5,0
ONEWEB-0195,2021-031AG,2026-07-20T18:40:08.101056,13.14505221,.0002383,87.8973,283.0079,96.7728,263.3673,0,U,48240,999,25256,-.66226153E-3,-.233E-5,0
ONEWEB-0201,2021-031AH,2026-07-20T16:33:34.200288,13.14502548,.00019551,87.8963,283.0390,90.2857,269.8497,0,U,48241,999,25278,.27170503E-3,.114E-5,0
ONEWEB-0207,2021-031AJ,2026-07-20T17:54:26.021664,13.14501155,.00019424,87.8968,283.0148,91.8145,268.3207,0,U,48242,999,25270,.51807336E-3,.205E-5,0
ONEWEB-0208,2021-031AK,2026-07-20T17:28:10.775136,13.14502809,.00024155,87.8962,283.0231,99.2286,260.9117,0,U,48243,999,25271,-.37235197E-3,-.125E-5,0
ONEWEB-0200,2021-031AL,2026-07-20T18:25:16.873824,13.14502225,.00021159,87.8977,283.0049,96.2470,263.8901,0,U,48244,999,25264,.20207761E-3,.88E-6,0
ONEWEB-0217,2021-031AM,2026-07-20T22:27:19.315008,13.14502791,.00024314,87.8975,282.9756,99.1107,261.0298,0,U,48245,999,25261,-.46906633E-3,-.161E-5,0
